{"type": "FeatureCollection", "features": [{"type": "Feature", "properties": {"name": "姚江村", "place": "hamlet", "was:place": "village"}, "geometry": {"type": "Point", "coordinates": [120.3751695, 31.3410153]}}, {"type": "Feature", "properties": {"name": "中村村", "place": "isolated_dwelling", "was:place": "village"}, "geometry": {"type": "Point", "coordinates": [120.3705025, 31.3503477]}}, {"type": "Feature", "properties": {"name": "长巷村", "place": "isolated_dwelling", "was:place": "village"}, "geometry": {"type": "Point", "coordinates": [120.3710711, 31.3565138]}}, {"type": "Feature", "properties": {"name": "黄区村", "place": "hamlet", "was:place": "village"}, "geometry": {"type": "Point", "coordinates": [120.3758669, 31.3588134]}}, {"type": "Feature", "properties": {"name": "淹马村", "place": "village"}, "geometry": {"type": "Point", "coordinates": [120.3916919, 31.3446393]}}, {"type": "Feature", "properties": {"cycleway": "track", "highway": "primary", "name": "太湖大道", "name:en": "Taihu Avenue", "oneway": "yes", "surface": "asphalt"}, "geometry": {"type": "LineString", "coordinates": [[120.359596, 31.3490783], [120.3614804, 31.3491521], [120.361786, 31.3491627], [120.362848, 31.3491963], [120.3639271, 31.3492007], [120.3645922, 31.3491741], [120.3659555, 31.3490574], [120.3687644, 31.3486378], [120.3725738, 31.3480033], [120.3728809, 31.3479562], [120.3731382, 31.3479175], [120.3737557, 31.3478236], [120.3744982, 31.3477802], [120.3752464, 31.3477514], [120.375666, 31.3477507], [120.3771368, 31.347809], [120.3783841, 31.347898], [120.3805057, 31.34805], [120.3828832, 31.3482131], [120.3859731, 31.348408], [120.3867125, 31.3484475]]}}, {"type": "Feature", "properties": {"cycleway": "track", "highway": "primary", "name": "太湖大道", "name:en": "Taihu Avenue", "oneway": "yes", "surface": "asphalt"}, "geometry": {"type": "LineString", "coordinates": [[120.3866979, 31.3486445], [120.3862417, 31.3486111], [120.3833544, 31.3484087], [120.3798955, 31.3481928], [120.3766342, 31.3479465], [120.3756794, 31.3479259], [120.3756528, 31.3479266], [120.374988, 31.3479447], [120.3740596, 31.3480157], [120.3732735, 31.3481207], [120.3731895, 31.348134], [120.3729337, 31.348175], [120.372631, 31.3482227], [120.3721457, 31.3482988], [120.3719444, 31.3483304], [120.3704705, 31.348543], [120.367918, 31.3489583], [120.3660022, 31.3492597], [120.364606, 31.3493841], [120.3632162, 31.3494172], [120.3617865, 31.3493772], [120.3596319, 31.3493243]]}}, {"type": "Feature", "properties": {"highway": "secondary", "name": "渚镇路", "surface": "asphalt"}, "geometry": {"type": "LineString", "coordinates": [[120.4005644, 31.3358722], [120.3987817, 31.3362649], [120.3973653, 31.3365301], [120.3955609, 31.3368843], [120.3947565, 31.337086], [120.3945997, 31.3371331], [120.3939503, 31.3373705], [120.3924564, 31.337918], [120.3918824, 31.338099], [120.3882318, 31.3393899], [120.3846006, 31.3410632], [120.3820176, 31.3421822], [120.3770176, 31.3439521], [120.3760546, 31.3442384], [120.3757194, 31.3442888], [120.3754243, 31.3443049], [120.3741369, 31.3442934], [120.3646726, 31.3443137], [120.3640598, 31.344243], [120.3608255, 31.3435591], [120.3561156, 31.3426353], [120.3560201, 31.3426186], [120.3548345, 31.3424106], [120.3520251, 31.3419227], [120.3515943, 31.3418424]]}}, {"type": "Feature", "properties": {"highway": "tertiary"}, "geometry": {"type": "LineString", "coordinates": [[120.3912735, 31.341478], [120.3944694, 31.3415979], [120.3947169, 31.3416087], [120.3959566, 31.3416292], [120.3968567, 31.341587], [120.3979135, 31.3414633], [120.398981, 31.3412114], [120.4010565, 31.3407156]]}}, {"type": "Feature", "properties": {"highway": "unclassified"}, "geometry": {"type": "LineString", "coordinates": [[120.3856323, 31.3625054], [120.3850379, 31.3633768], [120.3849551, 31.3634673], [120.3848678, 31.3635626], [120.3833604, 31.3644684], [120.3831295, 31.3645269], [120.3823758, 31.3644988], [120.3815484, 31.3644793], [120.3807389, 31.3645291], [120.3796248, 31.3645616], [120.3791122, 31.3645248], [120.3786402, 31.3644554], [120.3758374, 31.3639029], [120.3754997, 31.3638857], [120.375368, 31.3639469]]}}, {"type": "Feature", "properties": {"highway": "secondary", "name": "青城山路", "oneway": "yes"}, "geometry": {"type": "LineString", "coordinates": [[120.3940555, 31.3546122], [120.3942362, 31.3546032], [120.3944063, 31.3545944], [120.3965688, 31.3543944], [120.3966679, 31.3543833], [120.3967043, 31.3543795], [120.3968001, 31.3543606], [120.3974448, 31.3542547], [120.3981348, 31.3541101], [120.3987421, 31.3539678]]}}, {"type": "Feature", "properties": {"highway": "residential", "surface": "asphalt"}, "geometry": {"type": "LineString", "coordinates": [[120.375666, 31.3477507], [120.3754243, 31.3443049]]}}, {"type": "Feature", "properties": {"highway": "unclassified"}, "geometry": {"type": "LineString", "coordinates": [[120.3757194, 31.3442888], [120.3757703, 31.3410015], [120.3757703, 31.3406442], [120.3763926, 31.3406258], [120.3764355, 31.3403601], [120.3797078, 31.340493], [120.3838813, 31.3398653], [120.3846006, 31.3410632]]}}, {"type": "Feature", "properties": {"highway": "tertiary"}, "geometry": {"type": "LineString", "coordinates": [[120.3912735, 31.341478], [120.3912735, 31.3408687], [120.3914022, 31.3402776], [120.391649, 31.3397095], [120.3919065, 31.3391505], [120.392003, 31.3387931], [120.3919923, 31.3384083], [120.3918824, 31.338099]]}}, {"type": "Feature", "properties": {"cycleway": "lane", "highway": "secondary", "name": "北太湖大道", "name:el": "North Taihu Avenue", "surface": "asphalt"}, "geometry": {"type": "LineString", "coordinates": [[120.3584538, 31.3582665], [120.3597038, 31.3585447], [120.3614244, 31.3591343], [120.3624322, 31.3595994], [120.3630156, 31.359885], [120.3635627, 31.3601594], [120.3639302, 31.3602805], [120.3643389, 31.3603874], [120.3647937, 31.3604493], [120.365677, 31.3604915], [120.366468, 31.3605141], [120.3670118, 31.3605513], [120.3672658, 31.3606154], [120.3677045, 31.3607781], [120.3685068, 31.3612389], [120.3689426, 31.3615051], [120.3692139, 31.3616628], [120.3695775, 31.3617811], [120.3698806, 31.361855], [120.3703077, 31.3619092], [120.3712832, 31.3619881], [120.3724811, 31.3620741], [120.3729631, 31.3621504], [120.3733932, 31.3622835], [120.3738611, 31.3625054], [120.3743202, 31.3628282], [120.375368, 31.3639469], [120.3772454, 31.3659928], [120.3777385, 31.3664588], [120.3782485, 31.3668475], [120.3787745, 31.367187], [120.3793571, 31.3674878], [120.3826362, 31.3692074], [120.3832787, 31.369532]]}}, {"type": "Feature", "properties": {"highway": "secondary", "name": "龙康路", "oneway": "yes", "surface": "asphalt"}, "geometry": {"type": "LineString", "coordinates": [[120.3965177, 31.3527992], [120.3966157, 31.3533172], [120.3967162, 31.3538984], [120.3968001, 31.3543606], [120.3968251, 31.3545295], [120.3968554, 31.3550743], [120.3968796, 31.3554615], [120.396875, 31.3560126], [120.3968741, 31.3560599], [120.3968623, 31.3566493], [120.3968262, 31.3574847], [120.3967814, 31.3582747]]}}, {"type": "Feature", "properties": {"highway": "secondary", "name": "龙康路", "oneway": "yes", "surface": "asphalt"}, "geometry": {"type": "LineString", "coordinates": [[120.3965783, 31.3582551], [120.3966782, 31.3567688], [120.3966883, 31.356223], [120.3966731, 31.3555801], [120.3966326, 31.3550489], [120.396588, 31.354554], [120.3965688, 31.3543944], [120.3964514, 31.3535252], [120.3963492, 31.3529369], [120.3963322, 31.3527984]]}}, {"type": "Feature", "properties": {"highway": "steps"}, "geometry": {"type": "LineString", "coordinates": [[120.3949161, 31.3467574], [120.3950875, 31.3467202]]}}, {"type": "Feature", "properties": {"highway": "footway"}, "geometry": {"type": "LineString", "coordinates": [[120.3950257, 31.3470691], [120.395075, 31.3472059]]}}, {"type": "Feature", "properties": {"highway": "steps"}, "geometry": {"type": "LineString", "coordinates": [[120.3949472, 31.3462549], [120.3947731, 31.3462797]]}}, {"type": "Feature", "properties": {"bridge": "yes", "highway": "footway"}, "geometry": {"type": "LineString", "coordinates": [[120.3952228, 31.3471798], [120.3950875, 31.3467202], [120.3949472, 31.3462549]]}}, {"type": "Feature", "properties": {"highway": "footway"}, "geometry": {"type": "LineString", "coordinates": [[120.3947731, 31.3462797], [120.3948162, 31.3464218]]}}, {"type": "Feature", "properties": {"highway": "steps"}, "geometry": {"type": "LineString", "coordinates": [[120.395075, 31.3472059], [120.3952228, 31.3471798]]}}, {"type": "Feature", "properties": {"cycleway": "track", "highway": "secondary", "name": "美田里路", "oneway": "yes", "surface": "asphalt"}, "geometry": {"type": "LineString", "coordinates": [[120.3949861, 31.3440645], [120.3946316, 31.3425272], [120.3944694, 31.3415979], [120.3944815, 31.34058], [120.3946204, 31.338712], [120.3946934, 31.3372525], [120.3947565, 31.337086]]}}, {"type": "Feature", "properties": {"cycleway": "track", "highway": "secondary", "name": "美田里路", "oneway": "yes", "surface": "asphalt"}, "geometry": {"type": "LineString", "coordinates": [[120.3947565, 31.337086], [120.3949009, 31.3372601], [120.3948987, 31.3380133], [120.3948494, 31.3387244], [120.3947219, 31.3405629], [120.3947169, 31.3416087], [120.3948717, 31.3424928], [120.3952, 31.3439911]]}}, {"type": "Feature", "properties": {"construction": "tertiary", "highway": "secondary", "name": "昆仑山路", "oneway": "yes"}, "geometry": {"type": "LineString", "coordinates": [[120.3964269, 31.3665311], [120.3957153, 31.3664349], [120.3952536, 31.3663616], [120.3947647, 31.3662693], [120.3942214, 31.3661623], [120.3938167, 31.3660793], [120.3932641, 31.3659458], [120.392772, 31.3658193], [120.3923016, 31.3656824], [120.3918312, 31.3655329], [120.3913637, 31.3653707], [120.3909159, 31.3652084], [120.3902177, 31.3649209], [120.3894231, 31.3645497], [120.3887991, 31.3642105], [120.3881011, 31.363846], [120.3879717, 31.363773], [120.3874786, 31.3635108], [120.3870619, 31.3632937], [120.3866576, 31.3630555]]}}, {"type": "Feature", "properties": {"highway": "secondary", "name": "俞港路", "oneway": "yes", "surface": "asphalt"}, "geometry": {"type": "LineString", "coordinates": [[120.3903239, 31.3525776], [120.3899545, 31.3523573], [120.3896111, 31.3521013], [120.3892078, 31.3517637], [120.388872, 31.3513918], [120.3886844, 31.351113], [120.3884997, 31.3507979], [120.3883386, 31.3504835], [120.3882057, 31.3501352], [120.3881026, 31.3497352], [120.3880079, 31.3492747], [120.3879206, 31.3486487], [120.3879097, 31.3485647], [120.3879033, 31.3485251], [120.387888, 31.3484386]]}}, {"type": "Feature", "properties": {"amenity": "university", "name": "南京大学(苏州校区)", "name:en": "Nanjing University (Suzhou Campus)", "name:zh": "南京大学(苏州校区)", "wikipedia": "zh:南京大学苏州校区"}, "geometry": {"type": "Polygon", "coordinates": [[[120.3723641, 31.3568923], [120.3745258, 31.357091], [120.3755329, 31.3573188], [120.3771865, 31.3577965], [120.3779882, 31.3581053], [120.3791003, 31.3581177], [120.3794715, 31.3581622], [120.379651, 31.3579891], [120.3798524, 31.3576425], [120.380166, 31.3573214], [120.3803581, 31.3567668], [120.3808222, 31.3560675], [120.3808281, 31.3560319], [120.3808905, 31.3559933], [120.380751, 31.355915], [120.3808739, 31.3557473], [120.3809929, 31.3555816], [120.3812976, 31.3557411], [120.3813909, 31.3556832], [120.3814499, 31.3556813], [120.3814913, 31.3556631], [120.3815597, 31.3556142], [120.3816386, 31.3555436], [120.3816862, 31.3555045], [120.381729, 31.3555235], [120.381779, 31.3554895], [120.3818286, 31.3554501], [120.381854, 31.3554158], [120.3820064, 31.3553239], [120.3820422, 31.3552924], [120.3820748, 31.3552449], [120.3820863, 31.3552012], [120.3822085, 31.3549485], [120.3822268, 31.3549055], [120.3822494, 31.3548181], [120.3824306, 31.3545481], [120.3825405, 31.3544067], [120.3825545, 31.3543586], [120.3825526, 31.3543214], [120.3825302, 31.3542709], [120.3825245, 31.3542225], [120.3825408, 31.3541839], [120.3826005, 31.3541839], [120.3826237, 31.3541435], [120.3827143, 31.3540224], [120.3827493, 31.3539062], [120.3830492, 31.3534111], [120.3832546, 31.3533143], [120.3833723, 31.3533234], [120.3834428, 31.3533414], [120.3835223, 31.3533311], [120.3835863, 31.3532974], [120.3836118, 31.3532319], [120.3836325, 31.3531638], [120.383679, 31.353092], [120.3837631, 31.3530487], [120.3839092, 31.3530219], [120.3840297, 31.3529702], [120.3841973, 31.3529295], [120.3843632, 31.3527939], [120.3845149, 31.352601], [120.3846471, 31.3524987], [120.384949, 31.3523117], [120.3852208, 31.3522213], [120.3852914, 31.352158], [120.3853156, 31.3520717], [120.3853141, 31.3519854], [120.3854121, 31.351666], [120.3855344, 31.3515838], [120.3861969, 31.3499015], [120.3864079, 31.3493657], [120.3865292, 31.3490578], [120.3865958, 31.3488884], [120.3835849, 31.3487191], [120.3754713, 31.3481504], [120.3745848, 31.3482082], [120.3734583, 31.3483136], [120.3723653, 31.3484894], [120.3722352, 31.3504256], [120.3722513, 31.3524275], [120.3723641, 31.3568923]]]}}, {"type": "Feature", "properties": {"highway": "secondary", "oneway": "yes"}, "geometry": {"type": "LineString", "coordinates": [[120.3719488, 31.3558965], [120.3719103, 31.3550664], [120.3718832, 31.3539402], [120.3718713, 31.3528667], [120.3718626, 31.3518826], [120.3718373, 31.3514193], [120.3718359, 31.3508374], [120.3718676, 31.350182], [120.3719111, 31.3493252], [120.3719482, 31.3484989], [120.3719444, 31.3483304]]}}, {"type": "Feature", "properties": {"highway": "secondary", "name": "青城山路", "oneway": "yes"}, "geometry": {"type": "LineString", "coordinates": [[120.3987822, 31.3541276], [120.3982183, 31.3542563], [120.3974784, 31.3544145], [120.3971706, 31.3544667], [120.3968251, 31.3545295], [120.3967221, 31.3545416], [120.3966825, 31.3545479], [120.396588, 31.354554], [120.3944358, 31.354773], [120.3943017, 31.3547809], [120.3940979, 31.3547932]]}}, {"type": "Feature", "properties": {"landuse": "residential", "name": "金地翡翠星辰", "residential": "apartments"}, "geometry": {"type": "Polygon", "coordinates": [[[120.3970026, 31.3691327], [120.3969114, 31.3669341], [120.3995508, 31.3669073], [120.4007684, 31.3668036], [120.401144, 31.3673265], [120.4012567, 31.3675967], [120.4013532, 31.3678532], [120.4014122, 31.3681395], [120.4014659, 31.3684189], [120.4015625, 31.3691907], [120.4016027, 31.3694884], [120.401592, 31.3695307], [120.4015625, 31.3695593], [120.4015008, 31.3695811], [120.4014229, 31.3696006], [120.4013157, 31.3696075], [120.4011921, 31.3695999], [120.3970026, 31.3691327]]]}}, {"type": "Feature", "properties": {"highway": "unclassified", "surface": "asphalt"}, "geometry": {"type": "LineString", "coordinates": [[120.3703845, 31.3565894], [120.3697135, 31.3588992], [120.3689744, 31.3614434], [120.3689426, 31.3615051]]}}, {"type": "Feature", "properties": {"landuse": "residential", "name": "绿岛花园", "residential": "apartments"}, "geometry": {"type": "Polygon", "coordinates": [[[120.3851313, 31.3532303], [120.3860755, 31.3535602], [120.3872985, 31.3534136], [120.3877589, 31.3531134], [120.3883285, 31.3517277], [120.3875346, 31.3502984], [120.386569, 31.3500785], [120.3856964, 31.3519914], [120.3851313, 31.3532303]]]}}, {"type": "Feature", "properties": {"construction": "secondary", "highway": "secondary", "name": "普陀山路", "oneway": "yes"}, "geometry": {"type": "LineString", "coordinates": [[120.3879311, 31.3583386], [120.3892629, 31.3586479], [120.3905007, 31.3589331], [120.3907, 31.3589797], [120.3937133, 31.3596822], [120.3955479, 31.3601043], [120.3958466, 31.3601453], [120.3960982, 31.3601801], [120.3963917, 31.3602218]]}}, {"type": "Feature", "properties": {"construction": "unclassified", "highway": "tertiary"}, "geometry": {"type": "LineString", "coordinates": [[120.3836562, 31.3592898], [120.3847245, 31.3576406], [120.3847472, 31.3575993], [120.3847656, 31.3575659], [120.3847846, 31.3575316]]}}, {"type": "Feature", "properties": {"waterway": "river"}, "geometry": {"type": "LineString", "coordinates": [[120.3604703, 31.3530762], [120.3610519, 31.3532498], [120.3616007, 31.3534987], [120.3620965, 31.353734], [120.3624543, 31.3540143], [120.3627499, 31.3543392], [120.3632888, 31.355017], [120.3635424, 31.3551668], [120.3638712, 31.3552635], [120.3648166, 31.3553731], [120.3654777, 31.3554247], [120.3661877, 31.3554575], [120.3668061, 31.3554958], [120.3677288, 31.3556173], [120.368535, 31.3557312], [120.3693967, 31.3558534], [120.370623, 31.3560031], [120.3716301, 31.3560565], [120.3724606, 31.356142], [120.3740045, 31.3562434], [120.3762607, 31.3562898], [120.3764697, 31.3565893], [120.3767538, 31.3569489], [120.3769762, 31.3571812], [120.3772502, 31.3573988], [120.3776939, 31.3577276], [120.3779601, 31.3579054], [120.3782762, 31.3580648], [120.3787537, 31.3581565], [120.3791427, 31.3582143], [120.3796188, 31.3583081], [120.3825306, 31.3590615], [120.3860689, 31.3601793], [120.3859381, 31.3607163], [120.3858995, 31.3613701], [120.3860089, 31.3618206], [120.386298, 31.3621498], [120.3863412, 31.3621794], [120.3864362, 31.3622445], [120.3880821, 31.3631917], [120.3889299, 31.3635896], [120.3894575, 31.3637215], [120.3952166, 31.3639753], [120.3967774, 31.364127], [120.3976413, 31.364347], [120.3983334, 31.364347], [120.3987482, 31.364347], [120.3995049, 31.3641541], [120.3999196, 31.3639078], [120.4002759, 31.3636962], [120.4011653, 31.3633729], [120.4033114, 31.3627846]]}}, {"type": "Feature", "properties": {"waterway": "river"}, "geometry": {"type": "LineString", "coordinates": [[120.3930406, 31.3488486], [120.3927443, 31.3494032], [120.3923049, 31.3499795], [120.3920148, 31.3504582], [120.3909206, 31.3522634], [120.3901783, 31.353031], [120.3898086, 31.3531053], [120.3893957, 31.353248], [120.3879379, 31.3546089], [120.386629, 31.3547005], [120.3851699, 31.3542791], [120.3839373, 31.353502]]}}, {"type": "Feature", "properties": {"waterway": "ditch"}, "geometry": {"type": "LineString", "coordinates": [[120.3839373, 31.353502], [120.3846072, 31.3527529], [120.3851005, 31.3523981], [120.3853542, 31.3521831], [120.3856516, 31.3515958], [120.3859684, 31.350704], [120.3863828, 31.3497858], [120.3866719, 31.3489169], [120.3869483, 31.3480752], [120.3875004, 31.3478616], [120.3878919, 31.3478179], [120.3883448, 31.3477727], [120.3886346, 31.347835], [120.3888376, 31.3479501], [120.3889843, 31.3479521], [120.3893815, 31.3478959], [120.3896407, 31.3478776], [120.389913, 31.347937], [120.3900168, 31.3479744]]}}, {"type": "Feature", "properties": {"landuse": "residential", "name": "西渚花苑北区", "residential": "apartments"}, "geometry": {"type": "Polygon", "coordinates": [[[120.3914419, 31.3413169], [120.394167, 31.3414086], [120.3943761, 31.3383525], [120.3921607, 31.3382426], [120.392164, 31.3386373], [120.3920158, 31.3390581], [120.3918207, 31.3396499], [120.3916081, 31.340199], [120.3915256, 31.3405663], [120.3914419, 31.3413169]]]}}, {"type": "Feature", "properties": {"highway": "residential", "name": "武夷山路", "planned:highway": "secondary"}, "geometry": {"type": "LineString", "coordinates": [[120.3944132, 31.3576884], [120.3944194, 31.3576681], [120.3944904, 31.3573172], [120.3945371, 31.3570205], [120.3945707, 31.3566967], [120.3945688, 31.3564542], [120.3945483, 31.3561543], [120.3944923, 31.3557986], [120.3943017, 31.3547809], [120.3942362, 31.3546032], [120.3938254, 31.3537153], [120.3934368, 31.3529065], [120.3933266, 31.3526417], [120.3932799, 31.3523561], [120.3932874, 31.3520993], [120.3933584, 31.3518329], [120.3934798, 31.3515952], [120.3936498, 31.3513862], [120.3938609, 31.351198], [120.3941149, 31.351048], [120.3943542, 31.3509467], [120.3953208, 31.3506928]]}}, {"type": "Feature", "properties": {"construction": "tertiary", "highway": "secondary", "name": "昆仑山路", "oneway": "yes"}, "geometry": {"type": "LineString", "coordinates": [[120.3964148, 31.3663562], [120.3965669, 31.36637], [120.3973514, 31.3664379], [120.398376, 31.3664722], [120.3992482, 31.3664592], [120.3999888, 31.366416]]}}, {"type": "Feature", "properties": {"construction": "secondary", "highway": "secondary", "name": "龙康路", "oneway": "yes"}, "geometry": {"type": "LineString", "coordinates": [[120.3965773, 31.3691454], [120.3964269, 31.3665311], [120.3964231, 31.3664629], [120.3964148, 31.3663562], [120.3962864, 31.3646984], [120.3962501, 31.3642303]]}}, {"type": "Feature", "properties": {"construction": "secondary", "highway": "secondary", "name": "龙康路", "oneway": "yes"}, "geometry": {"type": "LineString", "coordinates": [[120.3963912, 31.3642388], [120.396432, 31.3647249], [120.3965209, 31.3657825], [120.3965669, 31.36637], [120.3965861, 31.3665463], [120.3967254, 31.3691613]]}}, {"type": "Feature", "properties": {"construction": "unclassified", "highway": "secondary", "name": "俞港路", "oneway": "yes", "surface": "asphalt"}, "geometry": {"type": "LineString", "coordinates": [[120.391632, 31.3569299], [120.3918257, 31.3565839], [120.3919445, 31.3563393], [120.392024, 31.3561219], [120.3920824, 31.3558758], [120.3921121, 31.3556466], [120.3921282, 31.355348], [120.3921121, 31.3549142]]}}, {"type": "Feature", "properties": {"cycleway": "lane", "highway": "unclassified"}, "geometry": {"type": "LineString", "coordinates": [[120.3874872, 31.364964], [120.3875069, 31.3675489], [120.3874589, 31.3676044], [120.3869082, 31.3675802], [120.3868405, 31.3676478], [120.3867488, 31.3682324]]}}, {"type": "Feature", "properties": {"footway": "crossing", "highway": "footway"}, "geometry": {"type": "LineString", "coordinates": [[120.3959481, 31.3469122], [120.3957591, 31.346939], [120.3956235, 31.3469677], [120.3955053, 31.3469874], [120.3953746, 31.3470033]]}}, {"type": "Feature", "properties": {"footway": "sidewalk", "highway": "footway"}, "geometry": {"type": "LineString", "coordinates": [[120.3953746, 31.3470033], [120.3952727, 31.346985], [120.3950393, 31.3470377], [120.3950257, 31.3470691]]}}, {"type": "Feature", "properties": {"footway": "sidewalk", "highway": "footway"}, "geometry": {"type": "LineString", "coordinates": [[120.3948162, 31.3464218], [120.394865, 31.3464696], [120.3953075, 31.3463734], [120.3953837, 31.3463171]]}}, {"type": "Feature", "properties": {"footway": "crossing", "highway": "footway"}, "geometry": {"type": "LineString", "coordinates": [[120.3953837, 31.3463171], [120.3955288, 31.3462921], [120.3957743, 31.3462497], [120.3959097, 31.3462269]]}}, {"type": "Feature", "properties": {"landuse": "education"}, "geometry": {"type": "Polygon", "coordinates": [[[120.3955918, 31.3387885], [120.3949696, 31.3389123], [120.3948569, 31.3405754], [120.394873, 31.3413314], [120.3950232, 31.3414322], [120.3964877, 31.3414597], [120.3967076, 31.3413589], [120.3955918, 31.3387885]]]}}, {"type": "Feature", "properties": {"landuse": "cemetery"}, "geometry": {"type": "Polygon", "coordinates": [[[120.3873394, 31.3420265], [120.387314, 31.3416307], [120.3871807, 31.3411915], [120.3863902, 31.3412755], [120.3862347, 31.3414979], [120.3867204, 31.3429294], [120.3869775, 31.3428182], [120.3869235, 31.3424956], [120.3869521, 31.3423465], [120.3873394, 31.3420265]]]}}, {"type": "Feature", "properties": {"highway": "secondary", "name": "龙康路", "oneway": "yes", "surface": "asphalt"}, "geometry": {"type": "LineString", "coordinates": [[120.3957132, 31.3486925], [120.3956984, 31.3485908], [120.39568, 31.3484817], [120.3956503, 31.3482802], [120.3956207, 31.348026], [120.3955809, 31.3476932]]}}, {"type": "Feature", "properties": {"highway": "secondary", "name": "龙康路", "oneway": "yes", "surface": "asphalt"}, "geometry": {"type": "LineString", "coordinates": [[120.3959423, 31.3466691], [120.3958775, 31.3466975], [120.3958292, 31.3467262], [120.3958058, 31.3467514], [120.3957836, 31.3467857], [120.3957709, 31.3468138], [120.3957653, 31.3468532], [120.3957591, 31.346939], [120.3958017, 31.3474435]]}}, {"type": "Feature", "properties": {"bridge": "yes", "highway": "secondary", "layer": "1", "name": "龙康路", "oneway": "yes", "surface": "asphalt"}, "geometry": {"type": "LineString", "coordinates": [[120.3957686, 31.3491524], [120.3957132, 31.3486925]]}}, {"type": "Feature", "properties": {"bridge": "yes", "highway": "secondary", "layer": "1", "name": "龙康路", "oneway": "yes", "surface": "asphalt"}, "geometry": {"type": "LineString", "coordinates": [[120.3959191, 31.3486796], [120.3959739, 31.3491324]]}}, {"type": "Feature", "properties": {"highway": "footway"}, "geometry": {"type": "LineString", "coordinates": [[120.3956688, 31.3474206], [120.3956235, 31.3469677]]}}, {"type": "Feature", "properties": {"waterway": "river"}, "geometry": {"type": "LineString", "coordinates": [[120.3918297, 31.3486316], [120.3927065, 31.3482146], [120.3928591, 31.3481864], [120.3932138, 31.348197], [120.3935684, 31.3481265], [120.3937929, 31.3480555], [120.3939106, 31.3480183], [120.3940134, 31.3479858], [120.394386, 31.3478559], [120.3949439, 31.3476983], [120.3953602, 31.3476104], [120.3962743, 31.3475041], [120.396815, 31.3476141], [120.3973625, 31.3481304]]}}, {"type": "Feature", "properties": {"waterway": "ditch"}, "geometry": {"type": "LineString", "coordinates": [[120.3939169, 31.3465296], [120.3938569, 31.3458996], [120.3938463, 31.345131], [120.3939853, 31.3446126], [120.3940983, 31.3444283], [120.3947473, 31.3442172], [120.3953381, 31.3440286], [120.3958262, 31.3440812], [120.3962577, 31.3440724], [120.3965094, 31.3439847], [120.396792, 31.3435503], [120.397018, 31.3433002], [120.3973725, 31.3431862], [120.3978811, 31.3429097], [120.3983537, 31.3426495], [120.3989178, 31.3425331], [120.3994384, 31.3423107], [120.4008702, 31.3419984], [120.4028164, 31.3416649], [120.4037055, 31.3414986], [120.4042544, 31.3414796], [120.4047348, 31.3413425], [120.4053199, 31.3412054], [120.406207, 31.3410377], [120.4063099, 31.3410463], [120.4063944, 31.3410838], [120.4064672, 31.3411832], [120.4075085, 31.3431736], [120.4083576, 31.3439624], [120.4090838, 31.344123], [120.4096413, 31.34423]]}}, {"type": "Feature", "properties": {"bicycle": "designated", "foot": "designated", "highway": "path", "segregated": "no", "smoothness": "excellent", "surface": "paved"}, "geometry": {"type": "LineString", "coordinates": [[120.366468, 31.3605141], [120.3663625, 31.3604353], [120.3661714, 31.3603987], [120.3658121, 31.3603593], [120.3653507, 31.3602101], [120.3649552, 31.3601538], [120.3643817, 31.3602383], [120.364006, 31.3602242], [120.3639302, 31.3602805]]}}, {"type": "Feature", "properties": {"highway": "unclassified"}, "geometry": {"type": "LineString", "coordinates": [[120.3721753, 31.3569856], [120.3720235, 31.3569655], [120.3716447, 31.3568842], [120.3715939, 31.3568535], [120.371558, 31.3568144], [120.3715476, 31.3567561], [120.3703845, 31.3565894]]}}, {"type": "Feature", "properties": {"highway": "primary_link"}, "geometry": {"type": "LineString", "coordinates": [[120.3728809, 31.3479562], [120.372905, 31.3480561], [120.3729166, 31.3481043], [120.3729337, 31.348175]]}}, {"type": "Feature", "properties": {"bicycle": "yes", "footway": "crossing", "highway": "footway", "segregated": "no", "surface": "asphalt"}, "geometry": {"type": "LineString", "coordinates": [[120.3731382, 31.3479175], [120.3731607, 31.3480126], [120.3731724, 31.3480619], [120.3731895, 31.348134]]}}, {"type": "Feature", "properties": {"bicycle": "yes", "footway": "crossing", "highway": "footway", "segregated": "no", "surface": "asphalt"}, "geometry": {"type": "LineString", "coordinates": [[120.3725738, 31.3480033], [120.3725992, 31.3481006], [120.372612, 31.3481499], [120.372631, 31.3482227]]}}, {"type": "Feature", "properties": {"highway": "track"}, "geometry": {"type": "LineString", "coordinates": [[120.3594518, 31.357485], [120.3640598, 31.3580667], [120.3643119, 31.357911], [120.3657281, 31.3583691], [120.3697135, 31.3588992]]}}, {"type": "Feature", "properties": {"highway": "unclassified", "smoothness": "bad", "surface": "ground"}, "geometry": {"type": "LineString", "coordinates": [[120.3703845, 31.3565894], [120.3666559, 31.3561067], [120.3635395, 31.3556686], [120.3616458, 31.3553754]]}}, {"type": "Feature", "properties": {"highway": "secondary", "name": "俞港路", "oneway": "yes", "surface": "asphalt"}, "geometry": {"type": "LineString", "coordinates": [[120.3880904, 31.3484242], [120.3881019, 31.3485094], [120.3881067, 31.3485536], [120.3881227, 31.3486343], [120.3882099, 31.3492164], [120.3883201, 31.3497746], [120.3884189, 31.3501926], [120.3885576, 31.3505175], [120.3887496, 31.3508573], [120.388953, 31.3511489], [120.3891747, 31.351434], [120.3893965, 31.3516586], [120.3896944, 31.3519339], [120.3900597, 31.3521894], [120.3904361, 31.3524246]]}}, {"type": "Feature", "properties": {"waterway": "river"}, "geometry": {"type": "LineString", "coordinates": [[120.3879379, 31.3546089], [120.3885991, 31.3558811], [120.3885872, 31.3565618], [120.3870087, 31.3594191], [120.3860689, 31.3601793]]}}, {"type": "Feature", "properties": {"construction": "secondary", "highway": "tertiary"}, "geometry": {"type": "LineString", "coordinates": [[120.3810222, 31.3558223], [120.3808739, 31.3557473]]}}, {"type": "Feature", "properties": {"bridge": "yes", "construction": "secondary", "highway": "tertiary", "layer": "1"}, "geometry": {"type": "LineString", "coordinates": [[120.3813929, 31.356008], [120.3810222, 31.3558223]]}}, {"type": "Feature", "properties": {"construction": "secondary", "highway": "secondary", "name": "普陀山路", "oneway": "yes"}, "geometry": {"type": "LineString", "coordinates": [[120.3813929, 31.356008], [120.3815695, 31.3560297], [120.3816662, 31.3560652], [120.3817337, 31.35609], [120.3823363, 31.3564296], [120.3829841, 31.3567586], [120.3834479, 31.3569802], [120.3840823, 31.3572506], [120.3844304, 31.3574078], [120.3847846, 31.3575316], [120.3860143, 31.3578736], [120.3874269, 31.3582192]]}}, {"type": "Feature", "properties": {"bridge": "yes", "construction": "secondary", "highway": "secondary", "layer": "1", "name": "普陀山路", "oneway": "yes"}, "geometry": {"type": "LineString", "coordinates": [[120.3874269, 31.3582192], [120.3879311, 31.3583386]]}}, {"type": "Feature", "properties": {"construction": "secondary", "highway": "secondary", "name": "普陀山路", "oneway": "yes"}, "geometry": {"type": "LineString", "coordinates": [[120.3873531, 31.3583465], [120.3864722, 31.3581233], [120.3858859, 31.3579767], [120.3847245, 31.3576406], [120.3837701, 31.3572554], [120.3829164, 31.3568684], [120.3822738, 31.3565448], [120.3816518, 31.3562177], [120.3816002, 31.3561759], [120.3813929, 31.356008]]}}, {"type": "Feature", "properties": {"construction": "secondary", "highway": "secondary", "name": "普陀山路", "oneway": "yes"}, "geometry": {"type": "LineString", "coordinates": [[120.3963657, 31.3604271], [120.3959898, 31.3603729], [120.3956175, 31.3603137], [120.3950801, 31.3602084], [120.3945443, 31.360092], [120.3936452, 31.3598786], [120.3906102, 31.3591345], [120.3904346, 31.3590965], [120.3878686, 31.3584745]]}}, {"type": "Feature", "properties": {"bridge": "yes", "highway": "secondary", "layer": "1", "name": "普陀山路", "oneway": "yes"}, "geometry": {"type": "LineString", "coordinates": [[120.3878686, 31.3584745], [120.3873531, 31.3583465]]}}, {"type": "Feature", "properties": {"bridge": "yes", "construction": "unclassified", "highway": "secondary", "layer": "1", "name": "俞港路", "oneway": "yes", "surface": "asphalt"}, "geometry": {"type": "LineString", "coordinates": [[120.391465, 31.3572291], [120.391632, 31.3569299]]}}, {"type": "Feature", "properties": {"construction": "unclassified", "highway": "secondary", "name": "俞港路", "oneway": "yes", "surface": "asphalt"}, "geometry": {"type": "LineString", "coordinates": [[120.3883593, 31.3630657], [120.3904346, 31.3590965], [120.3904545, 31.3590454], [120.3904706, 31.3589973], [120.3905007, 31.3589331], [120.391465, 31.3572291]]}}, {"type": "Feature", "properties": {"bridge": "yes", "highway": "secondary", "layer": "1", "name": "俞港路", "oneway": "yes", "surface": "asphalt"}, "geometry": {"type": "LineString", "coordinates": [[120.3918427, 31.3569675], [120.3916741, 31.3572633]]}}, {"type": "Feature", "properties": {"highway": "secondary", "name": "俞港路", "oneway": "yes", "surface": "asphalt"}, "geometry": {"type": "LineString", "coordinates": [[120.3916741, 31.3572633], [120.3914391, 31.357682], [120.3911107, 31.3582475], [120.3907, 31.3589797], [120.3906601, 31.3590417], [120.3906328, 31.3590877], [120.3906102, 31.3591345], [120.3900922, 31.3601258], [120.3894355, 31.3613686], [120.388511, 31.3631369]]}}, {"type": "Feature", "properties": {"bridge": "yes", "construction": "tertiary", "highway": "secondary", "name": "昆仑山路", "oneway": "yes"}, "geometry": {"type": "LineString", "coordinates": [[120.3866576, 31.3630555], [120.3860597, 31.362731]]}}, {"type": "Feature", "properties": {"construction": "tertiary", "highway": "secondary", "name": "昆仑山路", "oneway": "yes"}, "geometry": {"type": "LineString", "coordinates": [[120.3860597, 31.362731], [120.3856323, 31.3625054], [120.3836345, 31.3613925], [120.3826251, 31.3608689], [120.380679, 31.3597871], [120.3797282, 31.3592651], [120.3789622, 31.3588968], [120.378255, 31.358572], [120.3774269, 31.3582535], [120.3757979, 31.3577454], [120.3747804, 31.3575132], [120.3740622, 31.357393], [120.3732576, 31.3572874], [120.3721116, 31.3571452]]}}, {"type": "Feature", "properties": {"bridge": "yes", "construction": "unclassified", "highway": "tertiary"}, "geometry": {"type": "LineString", "coordinates": [[120.3834303, 31.3596478], [120.3836562, 31.3592898]]}}, {"type": "Feature", "properties": {"construction": "unclassified", "highway": "tertiary"}, "geometry": {"type": "LineString", "coordinates": [[120.3826251, 31.3608689], [120.382729, 31.3607169], [120.3834303, 31.3596478]]}}, {"type": "Feature", "properties": {"layer": "-1", "tunnel": "culvert", "waterway": "ditch"}, "geometry": {"type": "LineString", "coordinates": [[120.3939595, 31.347556], [120.3939169, 31.3465296]]}}, {"type": "Feature", "properties": {"waterway": "canal"}, "geometry": {"type": "LineString", "coordinates": [[120.3940134, 31.3479858], [120.3939595, 31.347556]]}}, {"type": "Feature", "properties": {"cycleway": "track", "highway": "secondary", "name": "美田里路", "oneway": "yes", "surface": "asphalt"}, "geometry": {"type": "LineString", "coordinates": [[120.3955224, 31.3465044], [120.3955288, 31.3462921], [120.395023, 31.344205]]}}, {"type": "Feature", "properties": {"bridge": "yes", "cycleway": "track", "highway": "secondary", "layer": "1", "name": "美田里路", "oneway": "yes", "surface": "asphalt"}, "geometry": {"type": "LineString", "coordinates": [[120.395023, 31.344205], [120.3949861, 31.3440645]]}}, {"type": "Feature", "properties": {"cycleway": "track", "highway": "secondary", "name": "美田里路", "oneway": "yes", "surface": "asphalt"}, "geometry": {"type": "LineString", "coordinates": [[120.395233, 31.3441292], [120.3954941, 31.345321], [120.3957743, 31.3462497], [120.395862, 31.346441]]}}, {"type": "Feature", "properties": {"bridge": "yes", "cycleway": "track", "highway": "secondary", "layer": "1", "name": "美田里路", "oneway": "yes", "surface": "asphalt"}, "geometry": {"type": "LineString", "coordinates": [[120.3952, 31.3439911], [120.395233, 31.3441292]]}}, {"type": "Feature", "properties": {"bridge": "yes", "cycleway": "track", "highway": "primary", "layer": "1", "name": "太湖大道", "name:en": "Taihu Avenue", "oneway": "yes", "surface": "asphalt"}, "geometry": {"type": "LineString", "coordinates": [[120.3867125, 31.3484475], [120.3868791, 31.3484512]]}}, {"type": "Feature", "properties": {"cycleway": "track", "highway": "primary", "name": "太湖大道", "name:en": "Taihu Avenue", "oneway": "yes", "surface": "asphalt"}, "geometry": {"type": "LineString", "coordinates": [[120.3868791, 31.3484512], [120.3875742, 31.3484505], [120.387888, 31.3484386], [120.3880904, 31.3484242], [120.3888346, 31.3483383], [120.3898873, 31.3481734], [120.3900518, 31.34813], [120.3905221, 31.3480059], [120.3911444, 31.3478099], [120.3929683, 31.3471432], [120.3942665, 31.3467562], [120.3955224, 31.3465044], [120.395862, 31.346441], [120.3979363, 31.3461119], [120.4000269, 31.3457284], [120.4012283, 31.3454137], [120.4037946, 31.3447313], [120.4057117, 31.3441573], [120.4071686, 31.3436755], [120.4073214, 31.3436272], [120.4075734, 31.3435477]]}}, {"type": "Feature", "properties": {"waterway": "river"}, "geometry": {"type": "LineString", "coordinates": [[120.3839373, 31.353502], [120.3831874, 31.3538081], [120.3824448, 31.3545722], [120.3820259, 31.3553708], [120.3815333, 31.3557666], [120.3809308, 31.3561507], [120.3805362, 31.3565788], [120.3802276, 31.3573998], [120.3796188, 31.3583081]]}}, {"type": "Feature", "properties": {"cycleway": "track", "highway": "primary", "name": "太湖大道", "name:en": "Taihu Avenue", "oneway": "yes", "surface": "asphalt"}, "geometry": {"type": "LineString", "coordinates": [[120.407814, 31.3437483], [120.4074567, 31.3438557], [120.4072925, 31.3439127], [120.4049577, 31.3446527], [120.4028791, 31.3452474], [120.401222, 31.3456932], [120.3992234, 31.346138], [120.3972479, 31.3464758], [120.3960851, 31.3466383], [120.3959423, 31.3466691], [120.3951507, 31.3468286], [120.3945155, 31.3469736], [120.3934163, 31.3472605], [120.3927617, 31.3474559], [120.391322, 31.3479556], [120.3907838, 31.3481323], [120.3899428, 31.3483505], [120.388873, 31.3485509], [120.3881227, 31.3486343], [120.3879206, 31.3486487], [120.3873878, 31.3486621], [120.3868521, 31.3486528]]}}, {"type": "Feature", "properties": {"bridge": "yes", "cycleway": "track", "highway": "primary", "layer": "1", "name": "太湖大道", "name:en": "Taihu Avenue", "oneway": "yes", "surface": "asphalt"}, "geometry": {"type": "LineString", "coordinates": [[120.3868521, 31.3486528], [120.3866979, 31.3486445]]}}, {"type": "Feature", "properties": {"waterway": "ditch"}, "geometry": {"type": "LineString", "coordinates": [[120.3909464, 31.3482588], [120.3914123, 31.3483585], [120.3918297, 31.3486316], [120.3926062, 31.3486302], [120.3930406, 31.3488486]]}}, {"type": "Feature", "properties": {"layer": "-1", "tunnel": "culvert", "waterway": "ditch"}, "geometry": {"type": "LineString", "coordinates": [[120.3900168, 31.3479744], [120.3909464, 31.3482588]]}}, {"type": "Feature", "properties": {"highway": "secondary", "name": "俞港路", "oneway": "yes", "surface": "asphalt"}, "geometry": {"type": "LineString", "coordinates": [[120.3909189, 31.3527139], [120.3912755, 31.3529853], [120.3915981, 31.3533093], [120.3917824, 31.3535386], [120.3919555, 31.3537917], [120.3921027, 31.3540817], [120.3922222, 31.3543938], [120.3923184, 31.3546992], [120.3923648, 31.3548974], [120.3923736, 31.3551122], [120.3923598, 31.355385], [120.3923388, 31.355652], [120.3922879, 31.3559222], [120.3922357, 31.3561333], [120.3921619, 31.3563323], [120.3920748, 31.3565301], [120.3919718, 31.3567209], [120.3918427, 31.3569675]]}}, {"type": "Feature", "properties": {"bridge": "yes", "highway": "secondary", "layer": "1", "name": "俞港路", "oneway": "yes", "surface": "asphalt"}, "geometry": {"type": "LineString", "coordinates": [[120.3904361, 31.3524246], [120.3909189, 31.3527139]]}}, {"type": "Feature", "properties": {"highway": "secondary", "name": "俞港路", "oneway": "yes", "surface": "asphalt"}, "geometry": {"type": "LineString", "coordinates": [[120.3921121, 31.3549142], [120.3920761, 31.3547186], [120.3919933, 31.3544635], [120.3918745, 31.3541406], [120.3917284, 31.3538382], [120.3915599, 31.3535805], [120.39138, 31.3533595], [120.3911796, 31.3531624], [120.3908196, 31.3528687]]}}, {"type": "Feature", "properties": {"bridge": "yes", "highway": "secondary", "layer": "1", "name": "俞港路", "oneway": "yes", "surface": "asphalt"}, "geometry": {"type": "LineString", "coordinates": [[120.3908196, 31.3528687], [120.3903239, 31.3525776]]}}, {"type": "Feature", "properties": {"highway": "unclassified"}, "geometry": {"type": "LineString", "coordinates": [[120.3874872, 31.364964], [120.3880209, 31.3639756], [120.3881011, 31.363846]]}}, {"type": "Feature", "properties": {"bridge": "yes", "construction": "secondary", "highway": "secondary", "layer": "1", "name": "龙康路", "oneway": "yes"}, "geometry": {"type": "LineString", "coordinates": [[120.3963652, 31.3639175], [120.3963912, 31.3642388]]}}, {"type": "Feature", "properties": {"construction": "secondary", "highway": "secondary", "name": "龙康路", "oneway": "yes"}, "geometry": {"type": "LineString", "coordinates": [[120.3965513, 31.360445], [120.3965011, 31.3606924], [120.3964782, 31.3608965], [120.3964201, 31.361326], [120.3963815, 31.361675], [120.396337, 31.3621759], [120.3963208, 31.3627275], [120.3963185, 31.3629993], [120.3963341, 31.3633794], [120.3963652, 31.3639175]]}}, {"type": "Feature", "properties": {"construction": "secondary", "highway": "secondary", "name": "龙康路", "oneway": "yes"}, "geometry": {"type": "LineString", "coordinates": [[120.3962251, 31.363897], [120.3961963, 31.3634509], [120.3961822, 31.3629062], [120.3961809, 31.3625557], [120.3961927, 31.362208], [120.3962226, 31.3617625], [120.3963443, 31.3607439], [120.3963657, 31.3604271]]}}, {"type": "Feature", "properties": {"bridge": "yes", "construction": "secondary", "highway": "secondary", "layer": "1", "name": "龙康路", "oneway": "yes"}, "geometry": {"type": "LineString", "coordinates": [[120.3962501, 31.3642303], [120.3962251, 31.363897]]}}, {"type": "Feature", "properties": {"highway": "residential", "name": "武夷山路", "planned:highway": "secondary"}, "geometry": {"type": "LineString", "coordinates": [[120.3910463, 31.3650957], [120.3915405, 31.3641685], [120.391552, 31.3641474], [120.3916121, 31.364028]]}}, {"type": "Feature", "properties": {"bridge": "yes", "highway": "residential", "layer": "1", "name": "武夷山路", "planned:highway": "secondary"}, "geometry": {"type": "LineString", "coordinates": [[120.3916121, 31.364028], [120.3918204, 31.3636141]]}}, {"type": "Feature", "properties": {"highway": "residential"}, "geometry": {"type": "LineString", "coordinates": [[120.3968741, 31.3560599], [120.3988012, 31.3560052]]}}, {"type": "Feature", "properties": {"highway": "service", "oneway": "yes"}, "geometry": {"type": "LineString", "coordinates": [[120.3997961, 31.3643752], [120.399396, 31.36453], [120.39919, 31.364589], [120.3989727, 31.3646448], [120.3985636, 31.3647149], [120.3981898, 31.3647427], [120.3977651, 31.3647294], [120.3973192, 31.364675], [120.3968605, 31.3645868], [120.3965859, 31.364536], [120.3965448, 31.3645408], [120.396508, 31.3645578], [120.396474, 31.3645856], [120.3964556, 31.3646122], [120.3964386, 31.3646533], [120.396432, 31.3647249]]}}, {"type": "Feature", "properties": {"highway": "service"}, "geometry": {"type": "LineString", "coordinates": [[120.3962864, 31.3646984], [120.3962665, 31.3646094], [120.3962419, 31.3645558], [120.3962074, 31.3645147], [120.3961716, 31.3644831], [120.3961248, 31.3644589], [120.3960521, 31.3644442], [120.3950644, 31.3643476], [120.3943496, 31.3642812], [120.3938748, 31.3642478], [120.3921966, 31.3641895], [120.3915405, 31.3641685]]}}, {"type": "Feature", "properties": {"highway": "secondary", "name": "俞港路", "oneway": "yes", "surface": "asphalt"}, "geometry": {"type": "LineString", "coordinates": [[120.388296, 31.3635482], [120.3881856, 31.3637169], [120.3881011, 31.363846]]}}, {"type": "Feature", "properties": {"bridge": "yes", "highway": "secondary", "layer": "1", "name": "俞港路", "oneway": "yes", "surface": "asphalt"}, "geometry": {"type": "LineString", "coordinates": [[120.388511, 31.3631369], [120.388296, 31.3635482]]}}, {"type": "Feature", "properties": {"bridge": "yes", "construction": "unclassified", "highway": "secondary", "layer": "1", "name": "俞港路", "oneway": "yes", "surface": "asphalt"}, "geometry": {"type": "LineString", "coordinates": [[120.3881434, 31.3634766], [120.3883593, 31.3630657]]}}, {"type": "Feature", "properties": {"construction": "unclassified", "highway": "secondary", "name": "俞港路", "oneway": "yes", "surface": "asphalt"}, "geometry": {"type": "LineString", "coordinates": [[120.3879717, 31.363773], [120.3880478, 31.3636416], [120.3881434, 31.3634766]]}}, {"type": "Feature", "properties": {"highway": "secondary", "oneway": "yes"}, "geometry": {"type": "LineString", "coordinates": [[120.3721116, 31.3571452], [120.3720235, 31.3569655], [120.3720123, 31.3568175], [120.3719727, 31.3562716]]}}, {"type": "Feature", "properties": {"bridge": "yes", "highway": "secondary", "layer": "1", "oneway": "yes"}, "geometry": {"type": "LineString", "coordinates": [[120.3719727, 31.3562716], [120.3719488, 31.3558965]]}}, {"type": "Feature", "properties": {"cycleway": "lane", "highway": "unclassified"}, "geometry": {"type": "LineString", "coordinates": [[120.3849551, 31.3634673], [120.3860324, 31.36327]]}}, {"type": "Feature", "properties": {"highway": "secondary", "name": "昆仑山路", "oneway": "yes"}, "geometry": {"type": "LineString", "coordinates": [[120.3721753, 31.3569856], [120.3726711, 31.3570574], [120.3737326, 31.3571975], [120.3746216, 31.3573338], [120.3755106, 31.3575181], [120.3763003, 31.3577318], [120.3770555, 31.3579603], [120.377815, 31.3582182], [120.3783587, 31.3584319], [120.3788766, 31.3586752], [120.3795109, 31.3589773], [120.3801669, 31.3593127], [120.3809695, 31.3597586], [120.382729, 31.3607169], [120.3849181, 31.3619364], [120.3860706, 31.3625762]]}}, {"type": "Feature", "properties": {"highway": "secondary", "name": "昆仑山路", "oneway": "yes"}, "geometry": {"type": "LineString", "coordinates": [[120.3866073, 31.3628631], [120.3880478, 31.3636416], [120.3881856, 31.3637169], [120.3894035, 31.3643743], [120.3901154, 31.3647144], [120.3907277, 31.3649726], [120.3910463, 31.3650957], [120.3915673, 31.365287], [120.3920764, 31.3654586], [120.3926324, 31.365627], [120.3932767, 31.3657922], [120.3939379, 31.3659558], [120.3946272, 31.3660889], [120.3951945, 31.3661916], [120.3957993, 31.3662846], [120.3964148, 31.3663562]]}}, {"type": "Feature", "properties": {"bridge": "yes", "highway": "secondary", "layer": "1", "name": "昆仑山路", "oneway": "yes"}, "geometry": {"type": "LineString", "coordinates": [[120.3860706, 31.3625762], [120.3866073, 31.3628631]]}}, {"type": "Feature", "properties": {"highway": "secondary", "oneway": "yes"}, "geometry": {"type": "LineString", "coordinates": [[120.3721457, 31.3482988], [120.3720362, 31.3500876], [120.3720017, 31.3511343], [120.3720017, 31.3521588], [120.3720103, 31.3538577], [120.3720707, 31.3554128], [120.3721041, 31.3559235]]}}, {"type": "Feature", "properties": {"highway": "secondary", "oneway": "yes"}, "geometry": {"type": "LineString", "coordinates": [[120.372131, 31.356291], [120.3721717, 31.3569146], [120.3721753, 31.3569856]]}}, {"type": "Feature", "properties": {"bridge": "yes", "highway": "secondary", "layer": "1", "oneway": "yes"}, "geometry": {"type": "LineString", "coordinates": [[120.3721041, 31.3559235], [120.372131, 31.356291]]}}, {"type": "Feature", "properties": {"waterway": "river"}, "geometry": {"type": "LineString", "coordinates": [[120.3826896, 31.3698418], [120.3839518, 31.3693837], [120.3842003, 31.3692342], [120.3843415, 31.3690775], [120.3844714, 31.3680022], [120.3844952, 31.3679056], [120.3846577, 31.3672451], [120.3847707, 31.3668111], [120.3849344, 31.3662035], [120.3859849, 31.364482], [120.3861711, 31.3640452], [120.3864362, 31.3622445]]}}, {"type": "Feature", "properties": {"waterway": "canal"}, "geometry": {"type": "LineString", "coordinates": [[120.3885872, 31.3565618], [120.3893075, 31.3568371], [120.3899856, 31.357035], [120.3905349, 31.3570753], [120.3912731, 31.3570936], [120.392037, 31.3571816], [120.3924232, 31.3573318], [120.3929511, 31.3575664], [120.3932944, 31.3576433], [120.3936248, 31.357669], [120.3940731, 31.3577432], [120.3941784, 31.3577606], [120.3963585, 31.3583653], [120.3974185, 31.3584679], [120.3983326, 31.3585412], [120.3987275, 31.3584752], [120.3991995, 31.3584129]]}}, {"type": "Feature", "properties": {"highway": "secondary", "name": "龙康路", "oneway": "yes", "surface": "asphalt"}, "geometry": {"type": "LineString", "coordinates": [[120.3963657, 31.3604271], [120.3963917, 31.3602218], [120.3964236, 31.3599167], [120.396459, 31.3594038], [120.3964861, 31.35914], [120.3965601, 31.3585262], [120.3965608, 31.3585164]]}}, {"type": "Feature", "properties": {"bridge": "yes", "highway": "secondary", "layer": "1", "name": "龙康路", "oneway": "yes", "surface": "asphalt"}, "geometry": {"type": "LineString", "coordinates": [[120.3965608, 31.3585164], [120.3965783, 31.3582551]]}}, {"type": "Feature", "properties": {"highway": "secondary", "name": "龙康路", "oneway": "yes", "surface": "asphalt"}, "geometry": {"type": "LineString", "coordinates": [[120.3967665, 31.3585363], [120.3967657, 31.3585506], [120.3966873, 31.3594523], [120.3966464, 31.3597755], [120.3966006, 31.3602453], [120.3965513, 31.360445]]}}, {"type": "Feature", "properties": {"bridge": "yes", "highway": "secondary", "layer": "1", "name": "龙康路", "oneway": "yes", "surface": "asphalt"}, "geometry": {"type": "LineString", "coordinates": [[120.3967814, 31.3582747], [120.3967665, 31.3585363]]}}, {"type": "Feature", "properties": {"highway": "residential", "name": "武夷山路", "planned:highway": "secondary"}, "geometry": {"type": "LineString", "coordinates": [[120.3918204, 31.3636141], [120.3918602, 31.3635349], [120.392303, 31.3627055], [120.3926766, 31.3619957], [120.3930651, 31.3612619], [120.3932332, 31.3609461], [120.3934144, 31.3605186], [120.3936452, 31.3598786], [120.39367, 31.3598117], [120.393682, 31.3597742], [120.3937133, 31.3596822], [120.3938982, 31.35915], [120.3941878, 31.3583764], [120.3943223, 31.3579856], [120.3943358, 31.3579416]]}}, {"type": "Feature", "properties": {"bridge": "yes", "highway": "residential", "layer": "1", "name": "武夷山路", "planned:highway": "secondary"}, "geometry": {"type": "LineString", "coordinates": [[120.3943358, 31.3579416], [120.3944132, 31.3576884]]}}, {"type": "Feature", "properties": {"waterway": "canal"}, "geometry": {"type": "LineString", "coordinates": [[120.3940731, 31.3577432], [120.3941777, 31.3573398], [120.3942457, 31.3569336], [120.3942457, 31.3565613], [120.3941947, 31.3562614], [120.3940475, 31.355923], [120.3939116, 31.3556086], [120.3939342, 31.3552701], [120.3939795, 31.354951], [120.3938323, 31.3543223], [120.3936454, 31.3541047], [120.3935548, 31.3539355], [120.3935039, 31.353742], [120.3934472, 31.3535728], [120.3929263, 31.352799], [120.392377, 31.3519624], [120.3920655, 31.3513821], [120.3920148, 31.3504582]]}}, {"type": "Feature", "properties": {"highway": "secondary", "name": "青城山路", "oneway": "yes"}, "geometry": {"type": "LineString", "coordinates": [[120.3937915, 31.3548116], [120.3923648, 31.3548974], [120.3921121, 31.3549142]]}}, {"type": "Feature", "properties": {"bridge": "yes", "highway": "secondary", "layer": "1", "name": "青城山路", "oneway": "yes"}, "geometry": {"type": "LineString", "coordinates": [[120.3940979, 31.3547932], [120.3937915, 31.3548116]]}}, {"type": "Feature", "properties": {"highway": "secondary", "name": "青城山路", "oneway": "yes"}, "geometry": {"type": "LineString", "coordinates": [[120.3920761, 31.3547186], [120.3923184, 31.3546992], [120.3937485, 31.3546276]]}}, {"type": "Feature", "properties": {"bridge": "yes", "highway": "secondary", "layer": "1", "name": "青城山路", "oneway": "yes"}, "geometry": {"type": "LineString", "coordinates": [[120.3937485, 31.3546276], [120.3940555, 31.3546122]]}}, {"type": "Feature", "properties": {"waterway": "canal"}, "geometry": {"type": "LineString", "coordinates": [[120.3941499, 31.3690754], [120.3941833, 31.3687905], [120.3942547, 31.3684854], [120.3943114, 31.3683486], [120.3943804, 31.3682097], [120.3944593, 31.3681213], [120.3946393, 31.368016], [120.3947329, 31.3679382], [120.3948093, 31.367793], [120.3948981, 31.3676056], [120.3950681, 31.3673447], [120.3952111, 31.3672079], [120.3953664, 31.3671048], [120.395502, 31.3670248], [120.3955808, 31.3669196], [120.3956572, 31.3668017]]}}, {"type": "Feature", "properties": {"waterway": "canal"}, "geometry": {"type": "LineString", "coordinates": [[120.4015341, 31.3789449], [120.4015001, 31.3776866], [120.4014314, 31.3762284], [120.4013928, 31.3747298], [120.4013499, 31.373495], [120.4012941, 31.3719634], [120.4012941, 31.3704501], [120.4013011, 31.3698166], [120.4012469, 31.3691017], [120.4011439, 31.3687353], [120.4009336, 31.3682113], [120.4007233, 31.3677312], [120.4005688, 31.3671779], [120.4004101, 31.3668848], [120.4001097, 31.3661153], [120.3999895, 31.3657708], [120.3999251, 31.3654374], [120.3999337, 31.3650453], [120.3999196, 31.3639078], [120.3997964, 31.3634256], [120.3996633, 31.3629932], [120.3994273, 31.3625791], [120.3993243, 31.3623079], [120.3992771, 31.3620184], [120.3992642, 31.3609704], [120.3993114, 31.3606625], [120.3993114, 31.3601898], [120.3992728, 31.3598783], [120.3993028, 31.3588815], [120.3991995, 31.3584129], [120.3992685, 31.3581449], [120.3993586, 31.3578518], [120.3993629, 31.3575439], [120.3992556, 31.3572727], [120.3990539, 31.3569429], [120.3989424, 31.3566754], [120.3989166, 31.3563492], [120.3989381, 31.3561], [120.3990883, 31.3552681], [120.399114, 31.3549566], [120.3990754, 31.3546744], [120.3988179, 31.3536483], [120.3983105, 31.3537671], [120.3982059, 31.353748], [120.3976305, 31.3528195], [120.3966853, 31.3526696], [120.3959904, 31.3526664], [120.3959344, 31.3526058], [120.395628, 31.3511573], [120.3953291, 31.3502544], [120.3952953, 31.3501535], [120.3949102, 31.3490748]]}}, {"type": "Feature", "properties": {"waterway": "canal"}, "geometry": {"type": "LineString", "coordinates": [[120.3930406, 31.3488486], [120.3934609, 31.3488994], [120.3949102, 31.3490748], [120.3962697, 31.3488193], [120.3973625, 31.3481304], [120.3998508, 31.3478268], [120.4003305, 31.3477453]]}}, {"type": "Feature", "properties": {"highway": "secondary", "oneway": "yes", "surface": "asphalt"}, "geometry": {"type": "LineString", "coordinates": [[120.3991589, 31.3605349], [120.3985598, 31.3605407], [120.3978276, 31.3605253], [120.3971261, 31.3604847], [120.3965513, 31.360445], [120.3963657, 31.3604271]]}}, {"type": "Feature", "properties": {"highway": "secondary", "oneway": "yes", "surface": "asphalt"}, "geometry": {"type": "LineString", "coordinates": [[120.3963917, 31.3602218], [120.3966006, 31.3602453], [120.3972897, 31.3603058], [120.3979917, 31.3603498], [120.3981823, 31.3603641], [120.3983847, 31.3603748], [120.3987789, 31.3603722], [120.3991644, 31.3603682]]}}, {"type": "Feature", "properties": {"construction": "tertiary", "highway": "secondary", "name": "昆仑山路", "oneway": "yes"}, "geometry": {"type": "LineString", "coordinates": [[120.4000459, 31.366569], [120.3991238, 31.366629], [120.3984489, 31.3666401], [120.3978392, 31.3666238], [120.3973385, 31.3665989], [120.3965861, 31.3665463], [120.3964269, 31.3665311]]}}, {"type": "Feature", "properties": {"highway": "residential", "name": "武夷山路", "planned:highway": "secondary"}, "geometry": {"type": "LineString", "coordinates": [[120.3956063, 31.350616], [120.3959424, 31.3505135], [120.3960069, 31.3505009], [120.3960418, 31.3504925], [120.3961311, 31.350473], [120.3966428, 31.3503342], [120.3971026, 31.3501971], [120.397474, 31.3500705], [120.3977209, 31.3499706], [120.3988962, 31.3494868], [120.3994103, 31.3492691], [120.4000155, 31.3490828], [120.4003717, 31.3489958]]}}, {"type": "Feature", "properties": {"bridge": "yes", "highway": "residential", "layer": "1", "name": "武夷山路", "planned:highway": "secondary"}, "geometry": {"type": "LineString", "coordinates": [[120.3953208, 31.3506928], [120.3956063, 31.350616]]}}, {"type": "Feature", "properties": {"highway": "secondary", "name": "龙康路", "oneway": "yes", "surface": "asphalt"}, "geometry": {"type": "LineString", "coordinates": [[120.396283, 31.3525647], [120.3962405, 31.3523472], [120.3961392, 31.3518145], [120.396059, 31.3514109], [120.3959961, 31.351053], [120.3959614, 31.3507324], [120.3959424, 31.3505135], [120.3958983, 31.3501456], [120.3958518, 31.349804], [120.3957686, 31.3491524]]}}, {"type": "Feature", "properties": {"bridge": "yes", "highway": "secondary", "layer": "1", "name": "龙康路", "oneway": "yes", "surface": "asphalt"}, "geometry": {"type": "LineString", "coordinates": [[120.3963322, 31.3527984], [120.396283, 31.3525647]]}}, {"type": "Feature", "properties": {"highway": "secondary", "name": "龙康路", "oneway": "yes", "surface": "asphalt"}, "geometry": {"type": "LineString", "coordinates": [[120.3959739, 31.3491324], [120.3960555, 31.3497622], [120.3961149, 31.3503163], [120.3961311, 31.350473], [120.3962237, 31.3511846], [120.396324, 31.3517959], [120.3964238, 31.3523204], [120.3964714, 31.3525615]]}}, {"type": "Feature", "properties": {"bridge": "yes", "highway": "secondary", "layer": "1", "name": "龙康路", "oneway": "yes", "surface": "asphalt"}, "geometry": {"type": "LineString", "coordinates": [[120.3964714, 31.3525615], [120.3965177, 31.3527992]]}}, {"type": "Feature", "properties": {"highway": "secondary", "name": "龙康路", "oneway": "yes", "surface": "asphalt"}, "geometry": {"type": "LineString", "coordinates": [[120.3955601, 31.3474713], [120.3955374, 31.3472441], [120.3955053, 31.3469874], [120.3954685, 31.3469197], [120.3954235, 31.3468789], [120.3953719, 31.3468533], [120.3952914, 31.3468338], [120.3951507, 31.3468286]]}}, {"type": "Feature", "properties": {"bridge": "yes", "highway": "secondary", "layer": "1", "name": "龙康路", "oneway": "yes", "surface": "asphalt"}, "geometry": {"type": "LineString", "coordinates": [[120.3955809, 31.3476932], [120.3955601, 31.3474713]]}}, {"type": "Feature", "properties": {"highway": "secondary", "name": "龙康路", "oneway": "yes", "surface": "asphalt"}, "geometry": {"type": "LineString", "coordinates": [[120.3958168, 31.3476786], [120.3958186, 31.3476958], [120.3959191, 31.3486796]]}}, {"type": "Feature", "properties": {"bridge": "yes", "highway": "secondary", "layer": "1", "name": "龙康路", "oneway": "yes", "surface": "asphalt"}, "geometry": {"type": "LineString", "coordinates": [[120.3958017, 31.3474435], [120.3958168, 31.3476786]]}}, {"type": "Feature", "properties": {"highway": "footway"}, "geometry": {"type": "LineString", "coordinates": [[120.3816002, 31.3561759], [120.3816239, 31.3561362], [120.3816362, 31.3561156], [120.3816662, 31.3560652]]}}, {"type": "Feature", "properties": {"highway": "footway"}, "geometry": {"type": "LineString", "coordinates": [[120.3816814, 31.3561633], [120.3816239, 31.3561362]]}}, {"type": "Feature", "properties": {"highway": "footway"}, "geometry": {"type": "LineString", "coordinates": [[120.3816949, 31.3561477], [120.3816362, 31.3561156]]}}]}